0 FENGYUN 1C DEB
1 30469U 99025AGG 13281.40631416  .00001336  00000-0  10455-2 0    77
2 30469 098.4998 076.2236 0176897 206.8823 225.7448 13.86623328339205
0 FENGYUN 1C DEB
1 30469U 99025AGG 13282.40784389  .00001426  00000-0  11137-2 0    85
2 30469 098.4997 077.1345 0176909 204.1476 185.2107 13.86630726339341
0 FENGYUN 1C DEB
1 30469U 99025AGG 13285.37568000  .00001118  00000-0  87908-3 0   105
2 30469 098.4998 079.8339 0176995 196.0417 240.2417 13.86638731339758
0 FENGYUN 1C DEB
1 30469U 99025AGG 13286.37690250  .00001245  00000-0  97521-3 0   113
2 30469 098.5000 080.7447 0177018 193.3118 198.2310 13.86640432339899
0 FENGYUN 1C DEB
1 30469U 99025AGG 13287.39356541  .00001462  00000-0  11404-2 0   125
2 30469 098.5002 081.6694 0177038 190.5364 233.3076 13.86642795340031
0 FENGYUN 1C DEB
1 30469U 99025AGG 13288.84562464  .00001685  00000-0  13090-2 0   130
2 30469 098.5008 082.9903 0177070 186.5831 281.8451 13.86648549340234
0 FENGYUN 1C DEB
1 30469U 99025AGG 13290.41766896  .00001469  00000-0  11452-2 0   142
2 30469 098.5011 084.4204 0177052 182.2920 209.3679 13.86655449340459
0 FENGYUN 1C DEB
1 30469U 99025AGG 13291.42727315  .00001361  00000-0  10628-2 0   153
2 30469 098.5012 085.3387 0177063 179.5369 209.2536 13.86658768340593
0 FENGYUN 1C DEB
1 30469U 99025AGG 13292.96181565  .00001592  00000-0  12378-2 0   165
2 30469 098.5013 086.7346 0177058 175.3572 309.6253 13.86662612340806
0 FENGYUN 1C DEB
1 30469U 99025AGG 13293.96689350  .00001652  00000-0  12835-2 0   177
2 30469 098.5012 087.6488 0177030 172.6310 286.9343 13.86665918340946
0 FENGYUN 1C DEB
1 30469U 99025AGG 13295.40345015  .00001773  00000-0  13756-2 0   183
2 30469 098.5011 088.9558 0177000 168.7108 258.2093 13.86670624341142
